OSCAR 7 (AO-7)          
1 07530U 74089B   21184.54126253 -.00000029  00000-0  10115-3 0  9990
2 07530 101.8544 159.0275 0012290 353.4485 117.5696 12.53649285133989
PHASE 3B (AO-10)        
1 14129U 83058B   21183.56451452 -.00000230  00000-0  00000+0 0  9993
2 14129  26.1388 152.2849 6007246 347.9406   2.2728  2.05871767258218
UOSAT 2 (UO-11)         
1 14781U 84021B   21184.51688414  .00000156  00000-0  25082-4 0  9992
2 14781  97.5923 183.5672 0009327  37.4016 322.7846 14.83298597  9313
LUSAT (LO-19)           
1 20442U 90005G   21184.47686855  .00000004  00000-0  18053-4 0  9996
2 20442  98.7421 140.0899 0012811 111.7939 248.4609 14.32990493643123
EYESAT A (AO-27)        
1 22825U 93061C   21184.54011657 -.00000006  00000-0  15652-4 0  9993
2 22825  98.9163 202.5502 0008288 355.8209   4.2902 14.30118261448281
ITAMSAT (IO-26)         
1 22826U 93061D   21184.57666042  .00000003  00000-0  19175-4 0  9991
2 22826  98.9105 202.4948 0008556 342.3144  17.7739 14.30457678448531
RADIO ROSTO (RS-15)     
1 23439U 94085A   21184.57855587 -.00000037  00000-0  15882-3 0  9991
2 23439  64.8162 349.8821 0161413 332.4842  26.7605 11.27570237 92155
JAS-2 (FO-29)           
1 24278U 96046B   21184.42201842 -.00000054  00000-0 -21649-4 0  9994
2 24278  98.5664 250.2820 0351380 108.2629 255.7077 13.53105302228402
TECHSAT 1B (GO-32)      
1 25397U 98043D   21184.56998682 -.00000008  00000-0  15816-4 0  9993
2 25397  98.7716 130.0786 0002198  60.2763 299.8634 14.23710923193786
ISS (ZARYA)             
1 25544U 98067A   21184.03272880  .00001558  00000-0  36710-4 0  9996
2 25544  51.6448 264.3645 0002217 132.8621 285.6147 15.48759981291052
PCSAT (NO-44)           
1 26931U 01043C   21184.53685066 -.00000049  00000-0  12913-4 0  9998
2 26931  67.0503 238.9299 0006283 261.3409  98.6981 14.30623651 31499
SAUDISAT 1C (SO-50)     
1 27607U 02058C   21184.56422478  .00000001  00000-0  20602-4 0  9996
2 27607  64.5559 289.0796 0042490  15.5922 344.6477 14.75762039996904
CUTE-1 (CO-55)          
1 27844U 03031E   21184.51556904  .00000057  00000-0  45272-4 0  9999
2 27844  98.6790 192.4840 0010632  38.4389 321.7545 14.22317732934264
CUBESAT XI-IV (CO-57)   
1 27848U 03031J   21184.51354082  .00000050  00000-0  42420-4 0  9991
2 27848  98.6846 193.0455 0010722  50.6309 309.5817 14.21893872934097
MOZHAYETS 4 (RS-22)     
1 27939U 03042A   21184.54706742  .00000131  00000-0  32157-4 0  9997
2 27939  98.1436 321.5304 0011994 224.5703 135.4544 14.66995986949885
CUBESAT XI-V            
1 28895U 05043F   21184.35158111  .00000192  00000-0  45676-4 0  9999
2 28895  98.0610 317.2444 0017385 156.2917 203.9090 14.63927731836337
CUTE-1.7+APD II (CO-65) 
1 32785U 08021C   21184.39611021  .00000363  00000-0  44480-4 0  9991
2 32785  97.6115 162.6206 0011814 316.1016  43.9262 14.88742401714548
DELFI-C3 (DO-64)        
1 32789U 08021G   21184.32931931  .00002356  00000-0  15231-3 0  9998
2 32789  97.3745 219.0834 0013523  89.0359 271.2419 15.09073241719220
SEEDS II (CO-66)        
1 32791U 08021J   21184.53125518  .00000409  00000-0  46250-4 0  9993
2 32791  97.5712 168.6468 0011523 273.7229  86.2673 14.91435073715257
YUBILEINY (RS-30)       
1 32953U 08025A   21184.48543236  .00000021  00000-0  80971-4 0  9990
2 32953  82.5044  40.9599 0018963 304.4759  55.4529 12.43102269594976
KKS-1 (KISEKI)          
1 33499U 09002H   21184.54177122  .00000127  00000-0  26439-4 0  9992
2 33499  98.2669  54.8700 0009035 358.6416   1.4766 14.75670695668783
SWISSCUBE               
1 35932U 09051B   21184.49862014  .00000163  00000-0  47754-4 0  9998
2 35932  98.6021  25.0227 0008478  45.3032 314.8854 14.56548373625295
BEESAT-1                
1 35933U 09051C   21184.53232435  .00000139  00000-0  42271-4 0  9994
2 35933  98.5983  26.8703 0006834  57.8673 302.3186 14.56604541625372
ITUPSAT1                
1 35935U 09051E   21184.54606436  .00000117  00000-0  37898-4 0  9998
2 35935  98.6086  27.0194 0009153  57.2453 302.9624 14.55736087625118
XIWANG-1 (HOPE-1)       
1 36122U 09072B   21184.49027967 -.00000044  00000-0 -32380-5 0  9993
2 36122 100.1318 164.4914 0008173  66.8871 293.3103 13.16361219555003
JUGNU                   
1 37839U 11058B   21184.58023964  .00000297  00000-0  16256-4 0  9990
2 37839  19.9607 131.3887 0018732 269.9956 246.1566 14.12717813502745
SRMSAT                  
1 37841U 11058D   21184.40243661  .00000300  00000-0  19646-4 0  9993
2 37841  19.9704 204.6822 0012059 108.6687 280.8720 14.10698229501917
M-CUBED & EXP-1 PRIME   
1 37855U 11061F   21184.54883053  .00004159  00000-0  20447-3 0  9998
2 37855 101.7114 116.2910 0166758  22.8721 337.9809 15.07790141528605
STRAND-1                
1 39090U 13009E   21184.51137271  .00000023  00000-0  22938-4 0  9990
2 39090  98.4269  26.3343 0008190 225.8996 134.1516 14.35175456437344
SOMP                    
1 39134U 13015E   21184.53612197  .00002925  00000-0  13359-3 0  9992
2 39134  64.8633 120.1618 0009955 315.9079  44.1254 15.22687151453665
BEESAT-3                
1 39135U 13015F   21184.30636003  .00002314  00000-0  11793-3 0  9992
2 39135  64.8665 150.3589 0005529 346.2214  13.8761 15.19454109453447
BEESAT-2                
1 39136U 13015G   21184.31092642  .00001676  00000-0  89284-4 0  9990
2 39136  64.8736 156.8020 0023043 243.2561 116.6208 15.18807388452874
ZACUBE-1 (TSHEPISOSAT)  
1 39417U 13066B   21184.45700981  .00000374  00000-0  52572-4 0  9999
2 39417  97.5930 167.9553 0060106 108.1573 252.6198 14.81533129411447
GOMX-1                  
1 39430U 13066Q   21184.57374467  .00000291  00000-0  60829-4 0  9995
2 39430  97.8136 106.7175 0151927  64.2509 297.4280 14.59626368405396
CUBEBUG-2 (LO-74)       
1 39440U 13066AA  21184.44835299  .00000267  00000-0  43830-4 0  9993
2 39440  97.6768 153.0050 0079613 182.5369 177.5449 14.76260042408785
FUNCUBE-1 (AO-73)       
1 39444U 13066AE  21184.49885707  .00000465  00000-0  62559-4 0  9990
2 39444  97.5835 170.3622 0059253  98.5411 262.2524 14.82444788409811
UWE-3                   
1 39446U 13066AG  21184.46132694  .00000308  00000-0  46927-4 0  9996
2 39446  97.6373 159.9316 0070448 146.0177 214.5577 14.78798857408878
SPROUT                  
1 39770U 14029E   21184.54342591  .00001166  00000-0  13156-3 0  9994
2 39770  97.9181 295.8031 0009389 147.0068 213.1754 14.88474410385736
UNISAT-6                
1 40012U 14033C   21184.51756181  .00000297  00000-0  51080-4 0  9994
2 40012  97.6752  26.0939 0057318 207.1049 152.7165 14.74329413378565
DUCHIFAT-1              
1 40021U 14033M   21184.57039662  .00000733  00000-0  79252-4 0  9994
2 40021  97.9730 124.9342 0014175 108.5122 251.7637 14.91369116382685
QB50P1                  
1 40025U 14033R   21184.54236344  .00000454  00000-0  53663-4 0  9999
2 40025  97.9332 115.2718 0013569 121.5947 238.6596 14.89463088381815
NUDT-PHONESAT           
1 40900U 15049B   21184.51651455  .00004288  00000-0  16633-3 0  9994
2 40900  97.4192 198.5235 0013852  84.2467  67.0867 15.26577602321270
ZDPS 2A                 
1 40901U 15049C   21184.53023072  .00002083  00000-0  10088-3 0  9994
2 40901  97.4618 191.5247 0014427 120.7296 358.2531 15.19591128320414
ZDPS 2B                 
1 40902U 15049D   21184.51556911  .00002125  00000-0  10275-3 0  9991
2 40902  97.4648 188.8598 0014485 118.7391  34.9810 15.19628154320387
XW-2A                   
1 40903U 15049E   21184.49610787  .00004236  00000-0  90188-4 0  9998
2 40903  97.2345 238.9291 0010944 323.1432 149.3008 15.45446355325274
KAITUO 1A               
1 40904U 15049F   21184.52441359  .00001331  00000-0  72162-4 0  9995
2 40904  97.4852 186.1389 0015329 136.3862 340.0009 15.16224919319974
2015-049G               
1 40905U 15049G   21184.50686681  .00000563  00000-0  33628-4 0  9993
2 40905  97.4994 183.2224 0016340 136.8620 340.2693 15.15023421319761
XW-2C                   
1 40906U 15049H   21184.53092579  .00001226  00000-0  65672-4 0  9995
2 40906  97.4857 186.6830 0015755 126.8541 351.9437 15.16783773320008
XW-2D                   
1 40907U 15049J   21184.52166678  .00001291  00000-0  68361-4 0  9997
2 40907  97.4840 186.4728 0015133 123.4987 354.6550 15.17109433320037
LILACSAT-2              
1 40908U 15049K   21184.54242872  .00000762  00000-0  44881-4 0  9994
2 40908  97.5039 184.3153 0016652 139.1060 337.4986 15.14464943319667
XW-2F                   
1 40910U 15049M   21184.46524782  .00001876  00000-0  92399-4 0  9995
2 40910  97.4715 189.5262 0015845 111.2834  46.1936 15.19104952320152
XW-2B                   
1 40911U 15049N   21184.52518488  .00001308  00000-0  69378-4 0  9990
2 40911  97.4841 187.1559 0015156 124.8495 352.4723 15.17025982319927
KAITUO 1B               
1 40912U 15049P   21184.50056178  .00002141  00000-0  97544-4 0  9994
2 40912  97.4433 193.9342 0016143  87.1421  64.5289 15.21653366320633
TIANWANG 1A (TW-1A)     
1 40928U 15051D   21184.53131332  .00005752  00000-0  11936-3 0  9994
2 40928  97.0755 209.0477 0007874 224.9570 288.6453 15.46057573324178
LAPAN-A2                
1 40931U 15052B   21184.41540774  .00000628  00000-0 -17512-5 0  9996
2 40931   5.9963 138.5366 0013542 272.2388  87.6216 14.76679084311669
E-ST@R-II               
1 41459U 16025D   21184.47157317  .00001249  00000-0  64365-4 0  9992
2 41459  98.1452 321.6276 0160049   9.1104 351.2965 15.08185965284830
AAUSAT 4                
1 41460U 16025E   21184.60000593  .00002261  00000-0  10788-3 0  9996
2 41460  98.1440 325.7223 0146507 352.2911   7.6069 15.11306531285158
NUSAT-1 (FRESCO)        
1 41557U 16033B   21184.49671178  .00002465  00000-0  88576-4 0  9999
2 41557  97.3939 278.3438 0013113 170.8571 311.0190 15.29535945283980
BEESAT-4                
1 41619U 16040W   21184.39825031  .00002786  00000-0  11233-3 0  9995
2 41619  97.2684 240.0420 0008781 275.3586  84.6650 15.25613072267445
